start=new Date('2022-10-21T00:00:00.000Z').valueOf();
sats=[{"OBJECT_TYPE":"PAYLOAD","TLE_LINE1":"1 52845U 22062R   22293.91667824 -.00057625  00000-0 -36283-2 0  9998","SITE":"AFETR","FILE":"3626396","CENTER_NAME":"EARTH","GP_ID":"215727943","APOAPSIS":"540.953","PERIAPSIS":"538.330","ELEMENT_SET_NO":"999","MEAN_MOTION":"15.08873934","INCLINATION":"53.2189","MEAN_MOTION_DDOT":"0.0000000000000","MEAN_MOTION_DOT":"-0.00057625","COUNTRY_CODE":"US","LAUNCH_DATE":"2022-06-17","TIME_SYSTEM":"UTC","OBJECT_NAME":"STARLINK-4168","DECAY_DATE":null,"PERIOD":"95.435","MEAN_ELEMENT_THEORY":"SGP4","EPHEMERIS_TYPE":"0","BSTAR":"-0.00362830000000","REV_AT_EPOCH":"130","ECCENTRICITY":"0.00018960","OBJECT_ID":"2022-062R","MEAN_ANOMALY":"168.8019","TLE_LINE2":"2 52845  53.2189 181.7278 0001896  47.3735 168.8019 15.08873934  1306","NORAD_CAT_ID":"52845","CLASSIFICATION_TYPE":"U","RA_OF_ASC_NODE":"181.7278","REF_FRAME":"TEME","RCS_SIZE":"LARGE","EPOCH":"2022-10-20T22:00:00.999936","ARG_OF_PERICENTER":"47.3735","SEMIMAJOR_AXIS":"6917.777"},{"OBJECT_TYPE":"PAYLOAD","TLE_LINE1":"1 52846U 22062S   22293.91667824 -.00009358  00000-0 -57043-3 0  9997","SITE":"AFETR","FILE":"3626396","CENTER_NAME":"EARTH","GP_ID":"215728106","PERIAPSIS":"538.449","APOAPSIS":"540.980","ELEMENT_SET_NO":"999","MEAN_MOTION":"15.08850141","MEAN_MOTION_DDOT":"0.0000000000000","INCLINATION":"53.2181","MEAN_MOTION_DOT":"-0.00009358","COUNTRY_CODE":"US","LAUNCH_DATE":"2022-06-17","TIME_SYSTEM":"UTC","DECAY_DATE":null,"OBJECT_NAME":"STARLINK-4212","MEAN_ELEMENT_THEORY":"SGP4","PERIOD":"95.437","BSTAR":"-0.00057043000000","EPHEMERIS_TYPE":"0","REV_AT_EPOCH":"130","ECCENTRICITY":"0.00018290","OBJECT_ID":"2022-062S","MEAN_ANOMALY":"136.4041","TLE_LINE2":"2 52846  53.2181 181.7234 0001829  44.9813 136.4041 15.08850141  1308","NORAD_CAT_ID":"52846","CLASSIFICATION_TYPE":"U","RA_OF_ASC_NODE":"181.7234","RCS_SIZE":"LARGE","REF_FRAME":"TEME","ARG_OF_PERICENTER":"44.9813","EPOCH":"2022-10-20T22:00:00.999936","SEMIMAJOR_AXIS":"6917.849"},{"REF_FRAME":"TEME","RCS_SIZE":"LARGE","CLASSIFICATION_TYPE":"U","RA_OF_ASC_NODE":"181.7206","SEMIMAJOR_AXIS":"6917.847","EPOCH":"2022-10-20T22:00:00.999936","ARG_OF_PERICENTER":"53.1377","OBJECT_ID":"2022-062T","ECCENTRICITY":"0.00018000","REV_AT_EPOCH":"130","NORAD_CAT_ID":"52847","TLE_LINE2":"2 52847  53.2183 181.7206 0001800  53.1377 188.2409 15.08850956  1303","MEAN_ANOMALY":"188.2409","TIME_SYSTEM":"UTC","LAUNCH_DATE":"2022-06-17","BSTAR":"-0.00057511000000","EPHEMERIS_TYPE":"0","MEAN_ELEMENT_THEORY":"SGP4","PERIOD":"95.437","DECAY_DATE":null,"OBJECT_NAME":"STARLINK-4206","COUNTRY_CODE":"US","MEAN_MOTION_DDOT":"0.0000000000000","INCLINATION":"53.2183","MEAN_MOTION_DOT":"-0.00009432","ELEMENT_SET_NO":"999","MEAN_MOTION":"15.08850956","PERIAPSIS":"538.467","APOAPSIS":"540.957","FILE":"3626396","SITE":"AFETR","OBJECT_TYPE":"PAYLOAD","TLE_LINE1":"1 52847U 22062T   22293.91667824 -.00009432  00000-0 -57511-3 0  9991","GP_ID":"215728647","CENTER_NAME":"EARTH"},{"TIME_SYSTEM":"UTC","LAUNCH_DATE":"2022-06-17","BSTAR":"-0.00382890000000","EPHEMERIS_TYPE":"0","PERIOD":"95.436","MEAN_ELEMENT_THEORY":"SGP4","DECAY_DATE":null,"OBJECT_NAME":"STARLINK-4202","COUNTRY_CODE":"US","RCS_SIZE":"LARGE","REF_FRAME":"TEME","CLASSIFICATION_TYPE":"U","RA_OF_ASC_NODE":"181.7298","SEMIMAJOR_AXIS":"6917.784","ARG_OF_PERICENTER":"34.3855","EPOCH":"2022-10-20T22:00:00.999936","OBJECT_ID":"2022-062U","ECCENTRICITY":"0.00021940","REV_AT_EPOCH":"130","NORAD_CAT_ID":"52848","TLE_LINE2":"2 52848  53.2172 181.7298 0002194  34.3855 107.0105 15.08871412  1304","MEAN_ANOMALY":"107.0105","PERIAPSIS":"538.132","APOAPSIS":"541.167","FILE":"3626396","SITE":"AFETR","TLE_LINE1":"1 52848U 22062U   22293.91667824 -.00060766  00000-0 -38289-2 0  9999","OBJECT_TYPE":"PAYLOAD","GP_ID":"215728251","CENTER_NAME":"EARTH","MEAN_MOTION_DDOT":"0.0000000000000","INCLINATION":"53.2172","MEAN_MOTION_DOT":"-0.00060766","ELEMENT_SET_NO":"999","MEAN_MOTION":"15.08871412"},{"FILE":"3626396","SITE":"AFETR","OBJECT_TYPE":"PAYLOAD","TLE_LINE1":"1 52849U 22062V   22293.91667824 -.00005473  00000-0 -32593-3 0  9997","CENTER_NAME":"EARTH","GP_ID":"215727526","PERIAPSIS":"538.140","APOAPSIS":"541.318","ELEMENT_SET_NO":"999","MEAN_MOTION":"15.08845227","INCLINATION":"53.2149","MEAN_MOTION_DDOT":"0.0000000000000","MEAN_MOTION_DOT":"-0.00005473","COUNTRY_CODE":"US","TIME_SYSTEM":"UTC","LAUNCH_DATE":"2022-06-17","EPHEMERIS_TYPE":"0","BSTAR":"-0.00032593000000","PERIOD":"95.437","MEAN_ELEMENT_THEORY":"SGP4","OBJECT_NAME":"STARLINK-4197","DECAY_DATE":null,"OBJECT_ID":"2022-062V","ECCENTRICITY":"0.00022970","REV_AT_EPOCH":"130","TLE_LINE2":"2 52849  53.2149 171.7155 0002297  37.5977 238.7790 15.08845227  1301","NORAD_CAT_ID":"52849","MEAN_ANOMALY":"238.7790","RCS_SIZE":"LARGE","REF_FRAME":"TEME","CLASSIFICATION_TYPE":"U","RA_OF_ASC_NODE":"171.7155","SEMIMAJOR_AXIS":"6917.864","EPOCH":"2022-10-20T22:00:00.999936","ARG_OF_PERICENTER":"37.5977"},{"BSTAR":"-0.00052888000000","EPHEMERIS_TYPE":"0","PERIOD":"95.437","MEAN_ELEMENT_THEORY":"SGP4","OBJECT_NAME":"STARLINK-4187","DECAY_DATE":null,"TIME_SYSTEM":"UTC","LAUNCH_DATE":"2022-06-17","COUNTRY_CODE":"US","SEMIMAJOR_AXIS":"6917.871","EPOCH":"2022-10-20T22:00:00.999936","ARG_OF_PERICENTER":"60.7898","REF_FRAME":"TEME","RCS_SIZE":"LARGE","RA_OF_ASC_NODE":"181.7140","CLASSIFICATION_TYPE":"U","TLE_LINE2":"2 52850  53.2171 181.7140 0001586  60.7898 160.5960 15.08843188  1308","NORAD_CAT_ID":"52850","MEAN_ANOMALY":"160.5960","OBJECT_ID":"2022-062W","ECCENTRICITY":"0.00015860","REV_AT_EPOCH":"130","PERIAPSIS":"538.638","APOAPSIS":"540.833","GP_ID":"215727689","CENTER_NAME":"EARTH","FILE":"3626396","SITE":"AFETR","OBJECT_TYPE":"PAYLOAD","TLE_LINE1":"1 52850U 22062W   22293.91667824 -.00008696  00000-0 -52888-3 0  9998","MEAN_MOTION_DOT":"-0.00008696","INCLINATION":"53.2171","MEAN_MOTION_DDOT":"0.0000000000000","MEAN_MOTION":"15.08843188","ELEMENT_SET_NO":"999"},{"MEAN_MOTION":"15.08858396","ELEMENT_SET_NO":"999","MEAN_MOTION_DOT":"-0.00054242","INCLINATION":"53.2159","MEAN_MOTION_DDOT":"0.0000000000000","CENTER_NAME":"EARTH","GP_ID":"215728415","SITE":"AFETR","FILE":"3626396","OBJECT_TYPE":"PAYLOAD","TLE_LINE1":"1 52851U 22062X   22293.91667824 -.00054242  00000-0 -34140-2 0  9997","PERIAPSIS":"538.336","APOAPSIS":"541.042","MEAN_ANOMALY":"256.6196","TLE_LINE2":"2 52851  53.2159 171.7168 0001956  39.7723 256.6196 15.08858396  1303","NORAD_CAT_ID":"52851","OBJECT_ID":"2022-062X","REV_AT_EPOCH":"130","ECCENTRICITY":"0.00019560","SEMIMAJOR_AXIS":"6917.824","ARG_OF_PERICENTER":"39.7723","EPOCH":"2022-10-20T22:00:00.999936","REF_FRAME":"TEME","RCS_SIZE":"LARGE","CLASSIFICATION_TYPE":"U","RA_OF_ASC_NODE":"171.7168","COUNTRY_CODE":"US","BSTAR":"-0.00341400000000","EPHEMERIS_TYPE":"0","OBJECT_NAME":"STARLINK-3809","DECAY_DATE":null,"MEAN_ELEMENT_THEORY":"SGP4","PERIOD":"95.436","LAUNCH_DATE":"2022-06-17","TIME_SYSTEM":"UTC"},{"MEAN_ANOMALY":"216.5495","NORAD_CAT_ID":"52852","TLE_LINE2":"2 52852  53.2144 171.7202 0002139  39.8331 216.5495 15.08847853  1300","OBJECT_ID":"2022-062Y","REV_AT_EPOCH":"130","ECCENTRICITY":"0.00021390","SEMIMAJOR_AXIS":"6917.856","ARG_OF_PERICENTER":"39.8331","EPOCH":"2022-10-20T22:00:00.999936","RCS_SIZE":"LARGE","REF_FRAME":"TEME","RA_OF_ASC_NODE":"171.7202","CLASSIFICATION_TYPE":"U","COUNTRY_CODE":"US","EPHEMERIS_TYPE":"0","BSTAR":"-0.00032224000000","DECAY_DATE":null,"OBJECT_NAME":"STARLINK-4184","MEAN_ELEMENT_THEORY":"SGP4","PERIOD":"95.437","LAUNCH_DATE":"2022-06-17","TIME_SYSTEM":"UTC","MEAN_MOTION":"15.08847853","ELEMENT_SET_NO":"999","MEAN_MOTION_DOT":"-0.00005414","MEAN_MOTION_DDOT":"0.0000000000000","INCLINATION":"53.2144","GP_ID":"215727834","CENTER_NAME":"EARTH","SITE":"AFETR","FILE":"3626396","TLE_LINE1":"1 52852U 22062Y   22293.91667824 -.00005414  00000-0 -32224-3 0  9997","OBJECT_TYPE":"PAYLOAD","APOAPSIS":"541.201","PERIAPSIS":"538.242"},{"GP_ID":"215727944","CENTER_NAME":"EARTH","FILE":"3626396","SITE":"AFETR","OBJECT_TYPE":"PAYLOAD","TLE_LINE1":"1 52853U 22062Z   22293.91667824 -.00052600  00000-0 -33096-2 0  9994","APOAPSIS":"540.993","PERIAPSIS":"538.399","MEAN_MOTION":"15.08856156","ELEMENT_SET_NO":"999","MEAN_MOTION_DOT":"-0.00052600","INCLINATION":"53.2150","MEAN_MOTION_DDOT":"0.0000000000000","COUNTRY_CODE":"US","EPHEMERIS_TYPE":"0","BSTAR":"-0.00330960000000","PERIOD":"95.437","MEAN_ELEMENT_THEORY":"SGP4","OBJECT_NAME":"STARLINK-4189","DECAY_DATE":null,"TIME_SYSTEM":"UTC","LAUNCH_DATE":"2022-06-17","TLE_LINE2":"2 52853  53.2150 171.7160 0001875  47.0612 289.3410 15.08856156  1301","NORAD_CAT_ID":"52853","MEAN_ANOMALY":"289.3410","OBJECT_ID":"2022-062Z","ECCENTRICITY":"0.00018750","REV_AT_EPOCH":"130","SEMIMAJOR_AXIS":"6917.831","EPOCH":"2022-10-20T22:00:00.999936","ARG_OF_PERICENTER":"47.0612","RCS_SIZE":"LARGE","REF_FRAME":"TEME","CLASSIFICATION_TYPE":"U","RA_OF_ASC_NODE":"171.7160"},{"SEMIMAJOR_AXIS":"6917.815","EPOCH":"2022-10-20T22:00:00.999936","ARG_OF_PERICENTER":"45.3997","REF_FRAME":"TEME","RCS_SIZE":"LARGE","CLASSIFICATION_TYPE":"U","RA_OF_ASC_NODE":"171.7151","MEAN_ANOMALY":"270.9866","TLE_LINE2":"2 52854  53.2152 171.7151 0002044  45.3997 270.9866 15.08861343  1305","NORAD_CAT_ID":"52854","OBJECT_ID":"2022-062AA","REV_AT_EPOCH":"130","ECCENTRICITY":"0.00020440","EPHEMERIS_TYPE":"0","BSTAR":"-0.00327430000000","DECAY_DATE":null,"OBJECT_NAME":"STARLINK-4204","PERIOD":"95.436","MEAN_ELEMENT_THEORY":"SGP4","LAUNCH_DATE":"2022-06-17","TIME_SYSTEM":"UTC","COUNTRY_CODE":"US","MEAN_MOTION_DOT":"-0.00052054","INCLINATION":"53.2152","MEAN_MOTION_DDOT":"0.0000000000000","MEAN_MOTION":"15.08861343","ELEMENT_SET_NO":"999","PERIAPSIS":"538.266","APOAPSIS":"541.094","GP_ID":"215728107","CENTER_NAME":"EARTH","SITE":"AFETR","FILE":"3626396","TLE_LINE1":"1 52854U 22062AA  22293.91667824 -.00052054  00000-0 -32743-2 0  9996","OBJECT_TYPE":"PAYLOAD"}];
